[{"OBJECT_NAME":"OBJECT D","OBJECT_ID":"2024-173D","EPOCH":"2026-03-09T23:30:29.956896","MEAN_MOTION":15.27005733,"ECCENTRICITY":0.00090093,"INCLINATION":97.3606,"RA_OF_ASC_NODE":149.3901,"ARG_OF_PERICENTER":241.6081,"MEAN_ANOMALY":118.425,"EPHEMERIS_TYPE":0,"CLASSIFICATION_TYPE":"U","NORAD_CAT_ID":61230,"ELEMENT_SET_NO":999,"REV_AT_EPOCH":8130,"BSTAR":0.00072064626,"MEAN_MOTION_DOT":0.00019078,"MEAN_MOTION_DDOT":0},{"OBJECT_NAME":"STARLINK-36105","OBJECT_ID":"2025-281C","EPOCH":"2026-03-09T03:58:20.583264","MEAN_MOTION":15.27596539,"ECCENTRICITY":0.000189,"INCLINATION":43.0051,"RA_OF_ASC_NODE":346.585,"ARG_OF_PERICENTER":259.7852,"MEAN_ANOMALY":100.2787,"EPHEMERIS_TYPE":0,"CLASSIFICATION_TYPE":"U","NORAD_CAT_ID":66850,"ELEMENT_SET_NO":999,"REV_AT_EPOCH":1610,"BSTAR":0.0011061971,"MEAN_MOTION_DOT":0.00030319,"MEAN_MOTION_DDOT":0}]
